ONEWEB-0641             
1 55805U 23029K   26197.21664390 -.00000782  00000+0 -19867-2 0  9996
2 55805  87.9194 299.1866 0002064 103.8986 256.2376 13.19717989162747
ONEWEB-0642             
1 55806U 23029L   26196.83282270  .00000025  00000+0  29681-4 0  9992
2 55806  87.9188 299.2727 0002693 113.4187 246.7229 13.19726412162681
ONEWEB-0643             
1 55807U 23029M   26197.22110367  .00000224  00000+0  57043-3 0  9997
2 55807  87.8956 283.9427 0002684 106.3240 253.8185 13.14502815163205
ONEWEB-0644             
1 55808U 23029N   26196.82808587  .00000026  00000+0  33558-4 0  9997
2 55808  87.9184 299.2746 0002290 106.2711 253.8674 13.19726087162687
ONEWEB-0645             
1 55809U 23029P   26197.22928118  .00000074  00000+0  15357-3 0  9995
2 55809  87.9184 299.1915 0002055 114.0920 246.0427 13.19726384162739
ONEWEB-0646             
1 55810U 23029Q   26196.79174536  .00000044  00000+0  78307-4 0  9997
2 55810  87.9186 299.2791 0002275 105.0055 255.1329 13.19726776162668
ONEWEB-0648             
1 55811U 23029R   26197.18937847 -.00000179  00000+0 -51821-3 0  9996
2 55811  87.8968 283.9254 0002414 121.6952 238.4413 13.14503615163204
ONEWEB-0649             
1 55812U 23029S   26196.81701183 -.00000057  00000+0 -17435-3 0  9996
2 55812  87.9185 299.2721 0002074 108.7143 251.4215 13.19726636162700
ONEWEB-0650             
1 55813U 23029T   26196.73646148 -.00000033  00000+0 -11564-3 0  9998
2 55813  87.9184 299.2905 0002499 111.5921 248.5478 13.19725962162665
ONEWEB-0652             
1 55814U 23029U   26197.17035304  .00000092  00000+0  21384-3 0  9998
2 55814  87.8969 283.9358 0001998  94.8973 265.2385 13.14502602163170
ONEWEB-0653             
1 55815U 23029V   26197.23061082  .00000297  00000+0  76627-3 0  9995
2 55815  87.8970 283.9220 0001960  99.7016 260.4335 13.14502596163211
ONEWEB-0654             
1 55816U 23029W   26197.22585238  .00000272  00000+0  69932-3 0  9993
2 55816  87.8968 283.9191 0001801  91.1412 268.9924 13.14502315163234
ONEWEB-0656             
1 55817U 23029X   26197.14349448  .00000107  00000+0  23054-3 0  9998
2 55817  87.9185 268.6608 0001869  86.8190 273.3157 13.20770287164970
ONEWEB-0657             
1 55818U 23029Y   26196.80756822 -.00000017  00000+0 -75258-4 0  9995
2 55818  87.9184 299.2751 0002200  79.0040 281.1340 13.19726941162680
ONEWEB-0658             
1 55819U 23029Z   26196.80281296 -.00000030  00000+0 -10661-3 0  9995
2 55819  87.9193 299.2541 0002358 107.2101 252.9290 13.19726449162698
ONEWEB-0660             
1 55820U 23029AA  26197.20364913 -.00000107  00000+0 -32434-3 0  9997
2 55820  87.8974 283.9193 0001954 108.9714 251.1628 13.14502287163210
ONEWEB-0661             
1 55821U 23029AB  26197.16242819  .00000271  00000+0  69515-3 0  9993
2 55821  87.8960 283.9674 0001804 107.3208 252.8119 13.14502535163191
ONEWEB-0662             
1 55822U 23029AC  26197.19731414 -.00000134  00000+0 -39644-3 0  9991
2 55822  87.8959 283.9659 0001938 108.5981 251.5359 13.14502429163242
ONEWEB-0663             
1 55823U 23029AD  26197.17503421  .00000038  00000+0  62290-4 0  9990
2 55823  87.9189 268.7253 0002215 110.1941 249.9431 13.20871443164979
ONEWEB-0664             
1 55824U 23029AE  26197.13003856  .00000085  00000+0  17612-3 0  9993
2 55824  87.9174 268.7121 0001605 103.6756 256.4556 13.20772189164968
ONEWEB-0665             
1 55825U 23029AF  26196.77866894  .00000233  00000+0  59358-3 0  9990
2 55825  87.8961 284.0248 0002027 109.9625 250.1723 13.14501963163167
ONEWEB-0666             
1 55826U 23029AG  26197.19904039  .00000076  00000+0  15414-3 0  9992
2 55826  87.9176 268.6883 0002503  84.0874 276.0545 13.20773346164981
ONEWEB-0667             
1 55827U 23029AH  26196.73944911 -.00000034  00000+0 -11655-3 0  9994
2 55827  87.9194 268.7422 0001999 103.7822 256.3534 13.20773106164918
ONEWEB-0669             
1 55828U 23029AJ  26197.11318337  .00000009  00000+0 -10148-4 0  9993
2 55828  87.9187 268.6772 0001661  87.3593 272.7730 13.20769994164961
ONEWEB-0670             
1 55829U 23029AK  26197.21317501  .00000077  00000+0  17440-3 0  9992
2 55829  87.8955 283.9549 0001673 106.5908 253.5406 13.14501924163240
ONEWEB-0671             
1 55830U 23029AL  26196.79806576 -.00000022  00000+0 -86613-4 0  9992
2 55830  87.9187 299.2785 0001955 105.0384 255.0965 13.19726140162674
ONEWEB-0672             
1 55831U 23029AM  26197.18389970  .00000044  00000+0  76543-4 0  9994
2 55831  87.9185 268.6568 0002070  91.8691 268.2679 13.20769970164977
ONEWEB-0673             
1 55832U 23029AN  26196.85097958  .00000027  00000+0  35899-4 0  9990
2 55832  87.9193 299.2613 0001931 104.0080 256.1267 13.19725486162689
ONEWEB-0674             
1 55833U 23029AP  26196.80085858 -.00000164  00000+0 -47657-3 0  9990
2 55833  87.8964 284.0141 0001640 104.5681 255.5631 13.14501510163170
ONEWEB-0675             
1 55834U 23029AQ  26197.16926044  .00000049  00000+0  90585-4 0  9991
2 55834  87.9187 299.2061 0002263  96.6075 263.5316 13.19724271162745
