OBJECT_NAME,OBJECT_ID,EPOCH,MEAN_MOTION,ECCENTRICITY,INCLINATION,RA_OF_ASC_NODE,ARG_OF_PERICENTER,MEAN_ANOMALY,EPHEMERIS_TYPE,CLASSIFICATION_TYPE,NORAD_CAT_ID,ELEMENT_SET_NO,REV_AT_EPOCH,BSTAR,MEAN_MOTION_DOT,MEAN_MOTION_DDOT
ONEWEB-0641,2023-029K,2026-07-16T05:11:58.032960,13.19717989,.0002064,87.9194,299.1866,103.8986,256.2376,0,U,55805,999,16274,-.19867E-2,-.782E-5,0
ONEWEB-0642,2023-029L,2026-07-15T19:59:15.881280,13.19726412,.00026932,87.9188,299.2727,113.4187,246.7229,0,U,55806,999,16268,.29681499E-4,.25E-6,0
ONEWEB-0643,2023-029M,2026-07-16T05:18:23.357088,13.14502815,.0002684,87.8956,283.9427,106.3240,253.8185,0,U,55807,999,16320,.57043E-3,.224E-5,0
ONEWEB-0644,2023-029N,2026-07-15T19:52:26.619168,13.19726087,.00022906,87.9184,299.2746,106.2711,253.8674,0,U,55808,999,16268,.33557846E-4,.26E-6,0
ONEWEB-0645,2023-029P,2026-07-16T05:30:09.893952,13.19726384,.0002055,87.9184,299.1915,114.0920,246.0427,0,U,55809,999,16273,.15357E-3,.74E-6,0
ONEWEB-0646,2023-029Q,2026-07-15T19:00:06.799104,13.19726776,.00022757,87.9186,299.2791,105.0055,255.1329,0,U,55810,999,16266,.78306575E-4,.44E-6,0
ONEWEB-0648,2023-029R,2026-07-16T04:32:42.299808,13.14503615,.0002414,87.8968,283.9254,121.6952,238.4413,0,U,55811,999,16320,-.51821E-3,-.179E-5,0
ONEWEB-0649,2023-029S,2026-07-15T19:36:29.822112,13.19726636,.00020745,87.9185,299.2721,108.7143,251.4215,0,U,55812,999,16270,-.17435189E-3,-.57E-6,0
ONEWEB-0650,2023-029T,2026-07-15T17:40:30.271872,13.19725962,.00024993,87.9184,299.2905,111.5921,248.5478,0,U,55813,999,16266,-.1156442E-3,-.33E-6,0
ONEWEB-0652,2023-029U,2026-07-16T04:05:18.502656,13.14502602,.0001998,87.8969,283.9358,94.8973,265.2385,0,U,55814,999,16317,.21384E-3,.92E-6,0
ONEWEB-0653,2023-029V,2026-07-16T05:32:04.774848,13.14502596,.000196,87.8970,283.9220,99.7016,260.4335,0,U,55815,999,16321,.76627E-3,.297E-5,0
ONEWEB-0654,2023-029W,2026-07-16T05:25:13.645632,13.14502315,.0001801,87.8968,283.9191,91.1412,268.9924,0,U,55816,999,16323,.69932E-3,.272E-5,0
ONEWEB-0656,2023-029X,2026-07-16T03:26:37.923072,13.20770287,.0001869,87.9185,268.6608,86.8190,273.3157,0,U,55817,999,16497,.23054E-3,.107E-5,0
ONEWEB-0657,2023-029Y,2026-07-15T19:22:53.894208,13.19726941,.00022001,87.9184,299.2751,79.0040,281.1340,0,U,55818,999,16268,-.75258434E-4,-.17E-6,0
ONEWEB-0658,2023-029Z,2026-07-15T19:16:03.039744,13.19726449,.00023584,87.9193,299.2541,107.2101,252.9290,0,U,55819,999,16269,-.10661381E-3,-.3E-6,0
ONEWEB-0660,2023-029AA,2026-07-16T04:53:15.284832,13.14502287,.0001954,87.8974,283.9193,108.9714,251.1628,0,U,55820,999,16321,-.32434E-3,-.107E-5,0
ONEWEB-0661,2023-029AB,2026-07-16T03:53:53.795616,13.14502535,.0001804,87.8960,283.9674,107.3208,252.8119,0,U,55821,999,16319,.69515E-3,.271E-5,0
ONEWEB-0662,2023-029AC,2026-07-16T04:44:07.941696,13.14502429,.0001938,87.8959,283.9659,108.5981,251.5359,0,U,55822,999,16324,-.39644E-3,-.134E-5,0
ONEWEB-0663,2023-029AD,2026-07-16T04:12:02.955744,13.20871443,.0002215,87.9189,268.7253,110.1941,249.9431,0,U,55823,999,16497,.6229E-4,.38E-6,0
ONEWEB-0664,2023-029AE,2026-07-16T03:07:15.331584,13.20772189,.0001605,87.9174,268.7121,103.6756,256.4556,0,U,55824,999,16496,.17612E-3,.85E-6,0
ONEWEB-0665,2023-029AF,2026-07-15T18:41:16.996416,13.14501963,.0002027,87.8961,284.0248,109.9625,250.1723,0,U,55825,999,16316,.59358034E-3,.233E-5,0
ONEWEB-0666,2023-029AG,2026-07-16T04:46:37.089696,13.20773346,.0002503,87.9176,268.6883,84.0874,276.0545,0,U,55826,999,16498,.15414E-3,.76E-6,0
ONEWEB-0667,2023-029AH,2026-07-15T17:44:48.403104,13.20773106,.00019993,87.9194,268.7422,103.7822,256.3534,0,U,55827,999,16491,-.11654848E-3,-.34E-6,0
ONEWEB-0669,2023-029AJ,2026-07-16T02:42:59.043168,13.20769994,.0001661,87.9187,268.6772,87.3593,272.7730,0,U,55828,999,16496,-.10148E-4,.9E-7,0
ONEWEB-0670,2023-029AK,2026-07-16T05:06:58.320864,13.14501924,.0001673,87.8955,283.9549,106.5908,253.5406,0,U,55829,999,16324,.1744E-3,.77E-6,0
ONEWEB-0671,2023-029AL,2026-07-15T19:09:12.881664,13.19726140,.00019556,87.9187,299.2785,105.0384,255.0965,0,U,55830,999,16267,-.86612935E-4,-.22E-6,0
ONEWEB-0672,2023-029AM,2026-07-16T04:24:48.934080,13.20769970,.000207,87.9185,268.6568,91.8691,268.2679,0,U,55831,999,16497,.76543E-4,.44E-6,0
ONEWEB-0673,2023-029AN,2026-07-15T20:25:24.635712,13.19725486,.0001931,87.9193,299.2613,104.0080,256.1267,0,U,55832,999,16268,.35899E-4,.27E-6,0
ONEWEB-0674,2023-029AP,2026-07-15T19:13:14.181312,13.14501510,.00016409,87.8964,284.0141,104.5681,255.5631,0,U,55833,999,16317,-.47656985E-3,-.164E-5,0
ONEWEB-0675,2023-029AQ,2026-07-16T04:03:44.102016,13.19724271,.0002263,87.9187,299.2061,96.6075,263.5316,0,U,55834,999,16274,.90585E-4,.49E-6,0
